STARLINK-32086          
1 59703U 24086X   24333.63908453  .00002256  00000+0  61288-4 0  9990
2 59703  43.0030 185.9411 0002681 274.5649  85.4902 15.40690474 32675
STARLINK-32098          
1 59704U 24086Y   24333.99221475  .00003282  00000+0  85771-4 0  9995
2 59704  43.0025 183.4166 0001978 289.8190  70.2453 15.40709482 32592
STARLINK-11107 [DTC]    
1 59708U 24088A   24333.73905610 -.00004430  00000+0 -31735-4 0  9992
2 59708  53.1575 102.9352 0001930  77.3512 282.7722 15.69691267 33072
STARLINK-11088 [DTC]    
1 59709U 24088B   24333.79300325  .00087008  00000+0  71665-3 0  9996
2 59709  53.1564 103.2872 0001345  69.1162 291.0000 15.69671433 33099
STARLINK-11092 [DTC]    
1 59710U 24088C   24333.78811930 -.00001356  00000+0 -63493-5 0  9992
2 59710  53.1601 103.2538 0001114 106.4052 253.7088 15.69677086 33090
STARLINK-11082 [DTC]    
1 59711U 24088D   24333.78320520 -.00012382  00000+0 -97685-4 0  9993
2 59711  53.1574 103.2216 0000930  68.3879 291.7237 15.69663724 33093
STARLINK-11108 [DTC]    
1 59712U 24088E   24333.77828784 -.00008850  00000+0 -68341-4 0  9990
2 59712  53.1569 103.1878 0000955  68.1747 291.9372 15.69685757 33092
STARLINK-11100 [DTC]    
1 59713U 24088F   24333.70971281 -.00004530  00000+0 -32486-4 0  9997
2 59713  53.1577 103.4726 0003449  34.1342 325.9897 15.69727918 33087
STARLINK-11094 [DTC]    
1 59714U 24088G   24333.76847762 -.00009493  00000+0 -73672-4 0  9995
2 59714  53.1576 103.1238 0000965 107.6728 252.4396 15.69683176 33092
STARLINK-11101 [DTC]    
1 59715U 24088H   24333.75869629 -.00005076  00000+0 -37140-4 0  9994
2 59715  53.1583 103.0573 0000812  54.9215 305.1879 15.69668112 33093
STARLINK-11099 [DTC]    
1 59716U 24088J   24333.69990534  .00001046  00000+0  13503-4 0  9996
2 59716  53.1593 103.4068 0001309  34.3683 325.7419 15.69694697 33085
STARLINK-11084 [DTC]    
1 59717U 24088K   24334.07211526 -.00004100  00000+0 -29026-4 0  9990
2 59717  53.1574 101.4530 0000772  45.7745 314.3337 15.69691247 33020
STARLINK-11103 [DTC]    
1 59718U 24088L   24334.06720852 -.00004848  00000+0 -35184-4 0  9998
2 59718  53.1591 101.4169 0001123 111.5324 248.5814 15.69705128 33026
STARLINK-11096 [DTC]    
1 59719U 24088M   24333.79787560  .00011074  00000+0  96150-4 0  9994
2 59719  53.1595 103.3132 0000541  40.8881 319.2177 15.69707153 33092
STARLINK-11095 [DTC]    
1 59720U 24088N   24334.06230046 -.00001582  00000+0 -82072-5 0  9993
2 59720  53.1586 101.3865 0000790  64.7257 295.3843 15.69704699 33022
STARLINK-31834          
1 59721U 24088P   24333.96846728  .00002493  00000+0  72268-4 0  9997
2 59721  53.1587 144.1734 0000884  82.9228 277.1877 15.39621881 32288
STARLINK-31843          
1 59722U 24088Q   24333.94988574  .00012193  00000+0  31399-3 0  9999
2 59722  53.1577 144.0551 0000775  92.8629 267.2465 15.39651097 32283
STARLINK-31766          
1 59723U 24088R   24333.77835307  .00000562  00000+0  24020-4 0  9997
2 59723  53.1587 145.1176 0000824  49.8833 310.2244 15.39639757 32333
STARLINK-31836          
1 59724U 24088S   24334.17250774  .00002403  00000+0  70057-4 0  9999
2 59724  53.1597 143.3144 0001145  90.4773 269.6363 15.39607221 32400
STARLINK-31820          
1 59725U 24088T   24333.96383325  .00009225  00000+0  24059-3 0  9994
2 59725  53.1586 144.1440 0001462  72.1700 287.9465 15.39587645 32285
STARLINK-31642          
1 59726U 24088U   24333.95420127  .00001550  00000+0  48737-4 0  9999
2 59726  53.1590 144.0816 0001208 109.4743 250.6392 15.39616460 32280
STARLINK-31827          
1 59727U 24088V   24333.94525030  .00002912  00000+0  82734-4 0  9996
2 59727  53.1563 144.0246 0001263  74.6425 285.4720 15.39626704 32462
STARLINK-31472          
1 59730U 24090A   24333.94502068  .00007160  00000+0  17844-3 0  9998
2 59730  43.0034 303.0322 0002392 275.5294  84.5290 15.40713048 32100
STARLINK-31817          
1 59731U 24090B   24333.63657537  .00000423  00000+0  17381-4 0  9999
2 59731  43.0038 305.0235 0001371 266.7392  93.3307 15.40710504 32052
STARLINK-31841          
1 59732U 24090C   24333.91667824  .00119794  00000+0  17769-2 0  9991
2 59732  42.9981 297.2359 0013266 158.4945 341.2343 15.54000991  5810
STARLINK-31833          
1 59733U 24090D   24334.19094815 -.00002098  00000+0 -43038-4 0  9997
2 59733  43.0001 301.4366 0001333 255.3749 104.6960 15.40653898 32094
STARLINK-31849          
1 59734U 24090E   24333.90708696  .00002636  00000+0  70309-4 0  9992
2 59734  43.0003 303.6187 0000515 285.1158  74.9641 15.40715928 32108
STARLINK-31661          
1 59735U 24090F   24333.65450023  .00001079  00000+0  33098-4 0  9997
2 59735  43.0079 305.1681 0002057 277.3185  82.7438 15.40703548 32054
STARLINK-31707          
1 59736U 24090G   24333.62315005  .00002295  00000+0  62233-4 0  9999
2 59736  43.0034 304.9184 0000807 284.3095  75.7672 15.40674288 32050
STARLINK-31821          
1 59737U 24090H   24333.61417199  .00002672  00000+0  71182-4 0  9998
2 59737  43.0055 304.8501 0002671 267.2171  92.8380 15.40715736 32052
