OBJECT_NAME,OBJECT_ID,EPOCH,MEAN_MOTION,ECCENTRICITY,INCLINATION,RA_OF_ASC_NODE,ARG_OF_PERICENTER,MEAN_ANOMALY,EPHEMERIS_TYPE,CLASSIFICATION_TYPE,NORAD_CAT_ID,ELEMENT_SET_NO,REV_AT_EPOCH,BSTAR,MEAN_MOTION_DOT,MEAN_MOTION_DDOT
STARLINK-32086,2024-086X,2024-11-28T15:20:16.903392,15.40690474,.0002681,43.0030,185.9411,274.5649,85.4902,0,U,59703,999,3267,.61288E-4,.2256E-4,0
STARLINK-32098,2024-086Y,2024-11-28T23:48:47.354400,15.40709482,.0001978,43.0025,183.4166,289.8190,70.2453,0,U,59704,999,3259,.85771E-4,.3282E-4,0
STARLINK-11107 [DTC],2024-088A,2024-11-28T17:44:14.447040,15.69691267,.000193,53.1575,102.9352,77.3512,282.7722,0,U,59708,999,3307,-.31735E-4,-.443E-4,0
STARLINK-11088 [DTC],2024-088B,2024-11-28T19:01:55.480800,15.69671433,.0001345,53.1564,103.2872,69.1162,291.0000,0,U,59709,999,3309,.71665E-3,.87008E-3,0
STARLINK-11092 [DTC],2024-088C,2024-11-28T18:54:53.507520,15.69677086,.0001114,53.1601,103.2538,106.4052,253.7088,0,U,59710,999,3309,-.63493E-5,-.1356E-4,0
STARLINK-11082 [DTC],2024-088D,2024-11-28T18:47:48.929280,15.69663724,.000093,53.1574,103.2216,68.3879,291.7237,0,U,59711,999,3309,-.97685E-4,-.12382E-3,0
STARLINK-11108 [DTC],2024-088E,2024-11-28T18:40:44.069376,15.69685757,.0000955,53.1569,103.1878,68.1747,291.9372,0,U,59712,999,3309,-.68341E-4,-.885E-4,0
STARLINK-11100 [DTC],2024-088F,2024-11-28T17:01:59.186784,15.69727918,.0003449,53.1577,103.4726,34.1342,325.9897,0,U,59713,999,3308,-.32486E-4,-.453E-4,0
STARLINK-11094 [DTC],2024-088G,2024-11-28T18:26:36.466368,15.69683176,.0000965,53.1576,103.1238,107.6728,252.4396,0,U,59714,999,3309,-.73672E-4,-.9493E-4,0
STARLINK-11101 [DTC],2024-088H,2024-11-28T18:12:31.359456,15.69668112,.0000812,53.1583,103.0573,54.9215,305.1879,0,U,59715,999,3309,-.3714E-4,-.5076E-4,0
STARLINK-11099 [DTC],2024-088J,2024-11-28T16:47:51.821376,15.69694697,.0001309,53.1593,103.4068,34.3683,325.7419,0,U,59716,999,3308,.13503E-4,.1046E-4,0
STARLINK-11084 [DTC],2024-088K,2024-11-29T01:43:50.758464,15.69691247,.0000772,53.1574,101.4530,45.7745,314.3337,0,U,59717,999,3302,-.29026E-4,-.41E-4,0
STARLINK-11103 [DTC],2024-088L,2024-11-29T01:36:46.816128,15.69705128,.0001123,53.1591,101.4169,111.5324,248.5814,0,U,59718,999,3302,-.35184E-4,-.4848E-4,0
STARLINK-11096 [DTC],2024-088M,2024-11-28T19:08:56.451840,15.69707153,.0000541,53.1595,103.3132,40.8881,319.2177,0,U,59719,999,3309,.9615E-4,.11074E-3,0
STARLINK-11095 [DTC],2024-088N,2024-11-29T01:29:42.759744,15.69704699,.000079,53.1586,101.3865,64.7257,295.3843,0,U,59720,999,3302,-.82072E-5,-.1582E-4,0
STARLINK-31834,2024-088P,2024-11-28T23:14:35.572992,15.39621881,.0000884,53.1587,144.1734,82.9228,277.1877,0,U,59721,999,3228,.72268E-4,.2493E-4,0
STARLINK-31843,2024-088Q,2024-11-28T22:47:50.127936,15.39651097,.0000775,53.1577,144.0551,92.8629,267.2465,0,U,59722,999,3228,.31399E-3,.12193E-3,0
STARLINK-31766,2024-088R,2024-11-28T18:40:49.705248,15.39639757,.0000824,53.1587,145.1176,49.8833,310.2244,0,U,59723,999,3233,.2402E-4,.562E-5,0
STARLINK-31836,2024-088S,2024-11-29T04:08:24.668736,15.39607221,.0001145,53.1597,143.3144,90.4773,269.6363,0,U,59724,999,3240,.70057E-4,.2403E-4,0
STARLINK-31820,2024-088T,2024-11-28T23:07:55.192800,15.39587645,.0001462,53.1586,144.1440,72.1700,287.9465,0,U,59725,999,3228,.24059E-3,.9225E-4,0
STARLINK-31642,2024-088U,2024-11-28T22:54:02.989728,15.39616460,.0001208,53.1590,144.0816,109.4743,250.6392,0,U,59726,999,3228,.48737E-4,.155E-4,0
STARLINK-31827,2024-088V,2024-11-28T22:41:09.625920,15.39626704,.0001263,53.1563,144.0246,74.6425,285.4720,0,U,59727,999,3246,.82734E-4,.2912E-4,0
STARLINK-31472,2024-090A,2024-11-28T22:40:49.786752,15.40713048,.0002392,43.0034,303.0322,275.5294,84.5290,0,U,59730,999,3210,.17844E-3,.716E-4,0
STARLINK-31817,2024-090B,2024-11-28T15:16:40.111968,15.40710504,.0001371,43.0038,305.0235,266.7392,93.3307,0,U,59731,999,3205,.17381E-4,.423E-5,0
STARLINK-31841,2024-090C,2024-11-28T22:00:00.999936,15.54000991,.0013266,42.9981,297.2359,158.4945,341.2343,0,U,59732,999,581,.17769E-2,.119794E-2,0
STARLINK-31833,2024-090D,2024-11-29T04:34:57.920160,15.40653898,.0001333,43.0001,301.4366,255.3749,104.6960,0,U,59733,999,3209,-.43038E-4,-.2098E-4,0
STARLINK-31849,2024-090E,2024-11-28T21:46:12.313344,15.40715928,.0000515,43.0003,303.6187,285.1158,74.9641,0,U,59734,999,3210,.70309E-4,.2636E-4,0
STARLINK-31661,2024-090F,2024-11-28T15:42:28.819872,15.40703548,.0002057,43.0079,305.1681,277.3185,82.7438,0,U,59735,999,3205,.33098E-4,.1079E-4,0
STARLINK-31707,2024-090G,2024-11-28T14:57:20.164320,15.40674288,.0000807,43.0034,304.9184,284.3095,75.7672,0,U,59736,999,3205,.62233E-4,.2295E-4,0
STARLINK-31821,2024-090H,2024-11-28T14:44:24.459936,15.40715736,.0002671,43.0055,304.8501,267.2171,92.8380,0,U,59737,999,3205,.71182E-4,.2672E-4,0
